GPS BIIR-2  (PRN 13)    
1 24876U 97035A   26116.34926611  .00000053  00000+0  00000+0 0  9995
2 24876  55.9676 100.6005 0099927  56.2025 304.7433  2.00563861210913
GPS BIIR-5  (PRN 22)    
1 26407U 00040A   26116.44839275 -.00000048  00000+0  00000+0 0  9992
2 26407  54.8616 217.2168 0121559 302.3575  64.4226  2.00557178188912
GPS BIIR-8  (PRN 16)    
1 27663U 03005A   26117.21647403 -.00000045  00000+0  00000+0 0  9994
2 27663  54.8924 216.9936 0148191  52.9627 283.5714  2.00563301170287
GPS BIIR-11 (PRN 19)    
1 28190U 04009A   26116.53875589 -.00000049  00000+0  00000+0 0  9991
2 28190  54.8736 277.7725 0113683 170.8393 190.7377  2.00556343161915
GPS BIIR-13 (PRN 02)    
1 28474U 04045A   26117.19938377 -.00000076  00000+0  00000+0 0  9994
2 28474  55.1651 326.9497 0170076 315.0111 228.8065  2.00553547157402
GPS BIIRM-1 (PRN 17)    
1 28874U 05038A   26116.51028610 -.00000049  00000+0  00000+0 0  9996
2 28874  54.9216 275.2615 0127781 295.8485  71.6096  2.00569234150807
INMARSAT 4-F2 (SOUTHPA*)
1 28899U 05044A   26116.73632355 -.00000270  00000+0  00000+0 0  9997
2 28899   5.0308  43.7600 0002737 349.2893 230.2135  1.00270978 75003
GPS BIIRM-2 (PRN 31)    
1 29486U 06042A   26117.11496531  .00000065  00000+0  00000+0 0  9997
2 29486  54.7027 153.3668 0106139  53.4661 288.2938  2.00572699143360
GPS BIIRM-3 (PRN 12)    
1 29601U 06052A   26114.57003035 -.00000038  00000+0  00000+0 0  9998
2 29601  54.9441 216.1310 0086480  90.2480 270.7556  2.00555028142332
GPS BIIRM-4 (PRN 15)    
1 32260U 07047A   26116.86945643  .00000003  00000+0  00000+0 0  9993
2 32260  54.0586  82.1794 0164787  86.5004 275.3611  2.00557863135785
COSMOS 2433 (720)       
1 32275U 07052A   26114.88955959 -.00000025  00000+0  00000+0 0  9991
2 32275  65.6073 317.7278 0000877 210.0462 149.9789  2.13103913143929
COSMOS 2432 (719)       
1 32276U 07052B   26116.13870983 -.00000028  00000+0  00000+0 0  9998
2 32276  65.6218 317.8121 0009020 337.4838 204.9130  2.13103016143970
GPS BIIRM-5 (PRN 29)    
1 32384U 07062A   26116.93297485 -.00000052  00000+0  00000+0 0  9994
2 32384  55.0742 276.2115 0034581 162.4186  10.5045  2.00556888134485
COSMOS 2434 (721)       
1 32393U 07065A   26113.26133750 -.00000006  00000+0  00000+0 0  9993
2 32393  64.3156 193.7675 0001761  53.0873  27.9132  2.13101316142601
COSMOS 2436 (723)       
1 32395U 07065C   26114.86144604 -.00000017  00000+0  00000+0 0  9994
2 32395  64.3242 193.7851 0017184 359.7473   1.3358  2.13100207142595
GPS BIIRM-6 (PRN 07)    
1 32711U 08012A   26116.28634255  .00000058  00000+0  00000+0 0  9997
2 32711  54.4883 151.9984 0209705 247.1041 110.7337  2.00570968132710
GPS BIIRM-8 (PRN 05)    
1 35752U 09043A   26116.78028897 -.00000106  00000+0  00000+0 0  9999
2 35752  56.1799  29.4711 0052981  81.3730 288.5810  2.00557087122339
